[{"OBJECT_NAME":"TACSAT 4","OBJECT_ID":"2011-052A","EPOCH":"2026-03-09T06:54:41.254272","MEAN_MOTION":6.1507619,"ECCENTRICITY":0.46275264,"INCLINATION":62.8144,"RA_OF_ASC_NODE":188.1237,"ARG_OF_PERICENTER":280.7164,"MEAN_ANOMALY":32.104,"EPHEMERIS_TYPE":0,"CLASSIFICATION_TYPE":"U","NORAD_CAT_ID":37818,"ELEMENT_SET_NO":999,"REV_AT_EPOCH":31864,"BSTAR":0.0013848382,"MEAN_MOTION_DOT":3.495e-5,"MEAN_MOTION_DDOT":0},{"OBJECT_NAME":"YAOGAN-1 DEB","OBJECT_ID":"2006-015J","EPOCH":"2026-03-09T17:10:54.675840","MEAN_MOTION":15.17781465,"ECCENTRICITY":0.00121617,"INCLINATION":97.7703,"RA_OF_ASC_NODE":138.5844,"ARG_OF_PERICENTER":172.9693,"MEAN_ANOMALY":187.1713,"EPHEMERIS_TYPE":0,"CLASSIFICATION_TYPE":"U","NORAD_CAT_ID":36365,"ELEMENT_SET_NO":999,"REV_AT_EPOCH":87329,"BSTAR":0.00061009979,"MEAN_MOTION_DOT":0.0001229,"MEAN_MOTION_DDOT":0}]
